STARLINK-6068           
1 56798U 23078AH  23171.50001157 -.00011467  00000+0 -93667-4 0  9993
2 56798  70.0005 356.4360 0003678 267.3488  88.3457 15.69937291  3480
STARLINK-5953           
1 56799U 23078AJ  23170.91667824  .00038442  00000+0  32033-3 0  9996
2 56799  70.0009 358.0624 0003715 274.0414  36.5539 15.69898012  1304
STARLINK-6036           
1 56800U 23078AK  23171.50001157 -.00011744  00000+0 -95987-4 0  9992
2 56800  70.0005 356.4359 0003722 266.0397  90.2601 15.69933067  3487
STARLINK-6087           
1 56801U 23078AL  23171.50001157 -.00028287  00000+0 -23405-3 0  9998
2 56801  70.0007 356.4276 0003653 267.4772  94.7699 15.69944909  3486
STARLINK-6070           
1 56802U 23078AM  23171.50001157 -.00028368  00000+0 -23470-3 0  9991
2 56802  70.0007 356.4331 0003605 265.9667  92.1069 15.69947854  3487
STARLINK-6029           
1 56803U 23078AN  23171.50001157 -.00015953  00000+0 -13106-3 0  9993
2 56803  70.0007 356.4287 0003653 267.3978  93.6574 15.69939821  3484
STARLINK-6069           
1 56804U 23078AP  23171.50001157 -.00025386  00000+0 -20974-3 0  9996
2 56804  70.0006 356.4343 0003622 266.3759  91.0990 15.69951362  3487
STARLINK-6064           
1 56805U 23078AQ  23171.50001157 -.00005456  00000+0 -43616-4 0  9992
2 56805  70.0007 356.4291 0003684 266.6699  93.7920 15.69931179  3481
STARLINK-6072           
1 56806U 23078AR  23171.50001157 -.00017342  00000+0 -14265-3 0  9997
2 56806  70.0005 356.4318 0003641 268.4833  90.7884 15.69939815  3484
STARLINK-6073           
1 56807U 23078AS  23171.50001157 -.00014694  00000+0 -12055-3 0  9990
2 56807  70.0007 356.4229 0003499 270.1130  95.7033 15.69942430  3487
STARLINK-6042           
1 56808U 23078AT  23171.50001157 -.00017612  00000+0 -14490-3 0  9999
2 56808  70.0007 356.4241 0003629 268.3111  96.9163 15.69940550  3483
STARLINK-6040           
1 56809U 23078AU  23170.91667824  .00043949  00000+0  36576-3 0  9992
2 56809  70.0008 358.0630 0003686 275.2235  33.5859 15.69896237  1302
STARLINK-6031           
1 56810U 23078AV  23171.50001157 -.00027147  00000+0 -22455-3 0  9996
2 56810  70.0006 356.4294 0003609 267.4883  94.1686 15.69942053  3487
STARLINK-6063           
1 56811U 23078AW  23171.50001157 -.00035434  00000+0 -29380-3 0  9999
2 56811  70.0010 356.4202 0003664 263.2828 104.3194 15.69951951  3481
STARLINK-6065           
1 56812U 23078AX  23171.50001157 -.00031978  00000+0 -26495-3 0  9993
2 56812  70.0005 356.4259 0003622 265.6457  98.3896 15.69944509  3488
STARLINK-6056           
1 56813U 23078AY  23171.50001157 -.00017213  00000+0 -14162-3 0  9998
2 56813  70.0010 356.4200 0003600 269.1279  99.0878 15.69932645  3484
STARLINK-6059           
1 56814U 23078AZ  23171.50001157 -.00018559  00000+0 -15280-3 0  9995
2 56814  70.0006 356.4220 0003610 267.6046  99.4087 15.69940900  3487
STARLINK-6057           
1 56815U 23078BA  23171.50001157 -.00011365  00000+0 -92857-4 0  9990
2 56815  70.0009 356.4180 0003661 266.0671 103.3431 15.69925880  3487
STARLINK-6067           
1 56816U 23078BB  23171.50001157 -.00020365  00000+0 -16795-3 0  9997
2 56816  70.0008 356.4204 0003576 268.3843 100.4297 15.69931297  3482
STARLINK-5982           
1 56817U 23078BC  23171.50001157 -.00030046  00000+0 -24880-3 0  9999
2 56817  70.0010 356.4254 0003580 266.3664  96.4819 15.69942095  3487
STARLINK-6028           
1 56818U 23078BD  23171.50001157 -.00012541  00000+0 -10264-3 0  9991
2 56818  70.0007 356.4178 0003814 268.3488 101.6406 15.69930323  3487
STARLINK-30119          
1 56823U 23079A   23171.58334491 -.01663538  00000+0 -28454-1 0  9993
2 56823  43.0009 117.7019 0000920 255.6928 322.8406 15.53523905  3002
STARLINK-30120          
1 56824U 23079B   23171.58334491 -.01662060  00000+0 -28408-1 0  9992
2 56824  43.0009 117.7006 0001542 248.5513 330.5195 15.53535591  3006
STARLINK-30084          
1 56825U 23079C   23171.58334491 -.01663242  00000+0 -28420-1 0  9990
2 56825  43.0009 117.6996 0000737 263.8377 315.7612 15.53552540  3009
STARLINK-30114          
1 56826U 23079D   23171.58334491  .00216489  00000+0  12593-2 0  9990
2 56826  43.0034 117.0880 0003302 184.0913 283.0814 15.77059947  3005
STARLINK-30151          
1 56827U 23079E   23171.16667824 -.01650537  00000+0 -26634-1 0  9993
2 56827  43.0005 120.1502 0001809 261.6854 144.6917 15.55068541  2939
STARLINK-30152          
1 56828U 23079F   23171.58334491 -.01661156  00000+0 -28329-1 0  9993
2 56828  43.0009 117.6969 0001520 247.3704 333.8170 15.53595072  3001
STARLINK-30139          
1 56829U 23079G   23171.58334491  .00447488  87298-4  11404-2 0  9997
2 56829  43.0044 115.5972 0004556 245.8500  95.6746 15.94563934  3022
STARLINK-30134          
1 56830U 23079H   23171.28721457  .00330324  48695-4  10124-2 0  9994
2 56830  43.0050 117.6462 0003445 267.6299  92.4181 15.91097764  3300
STARLINK-30128          
1 56832U 23079K   23171.29744150  .00101062  00000+0  34392-3 0  9994
2 56832  43.0031 117.7319 0005386 225.6440 134.3994 15.88757812  2974
STARLINK-30131          
1 56833U 23079L   23171.58334491 -.00188695  00000+0 -13240-2 0  9997
2 56833  43.0029 116.8915 0001857 241.6939 305.1444 15.73770037  3016
STARLINK-30069          
1 56834U 23079M   23171.16667824 -.01654927  00000+0 -26641-1 0  9996
2 56834  43.0005 120.1444 0001478 264.9952 143.9276 15.55144002  2936
STARLINK-30144          
1 56835U 23079N   23171.58334491 -.01660180  00000+0 -28233-1 0  9991
2 56835  43.0009 117.6901 0001699 241.9021 341.9342 15.53667958  3008
STARLINK-30142          
1 56836U 23079P   23171.58334491 -.01665036  00000+0 -28313-1 0  9996
2 56836  43.0009 117.6894 0001197 253.3068 331.0619 15.53684001  3006
STARLINK-30133          
1 56837U 23079Q   23171.58334491 -.01660874  00000+0 -28199-1 0  9994
2 56837  43.0009 117.6859 0001666 244.6972 340.7184 15.53713682  3008
STARLINK-30123          
1 56838U 23079R   23171.58334491 -.02474257  00000+0 -27085-1 0  9997
2 56838  43.0012 117.2366 0001685 259.8965 147.9213 15.65858124  3007
STARLINK-30076          
1 56839U 23079S   23171.58334491 -.01666907  00000+0 -28298-1 0  9999
2 56839  43.0010 117.6850 0001267 258.8864 327.0568 15.53731838  3004
STARLINK-30073          
1 56840U 23079T   23171.25002315 -.00591503  00000+0 -45866-2 0  9991
2 56840  43.0014 119.0407 0000931 300.0112 103.8182 15.72596990  2951
STARLINK-30078          
1 56841U 23079U   23171.25002315 -.01637946  00000+0 -26538-1 0  9999
2 56841  43.0008 119.6462 0001067 264.0549 255.5512 15.54943013  2950
STARLINK-30135          
1 56842U 23079V   23171.25002315 -.01611538  00000+0 -19789-1 0  9999
2 56842  43.0009 119.1110 0001895 256.5462 118.8436 15.62632009  2951
STARLINK-30137          
1 56843U 23079W   23171.25002315 -.01610769  00000+0 -19630-1 0  9990
2 56843  43.0010 119.1048 0001596 271.0670 106.7980 15.62825388  2959
STARLINK-30136          
1 56844U 23079X   23171.25002315 -.01612262  00000+0 -19023-1 0  9997
2 56844  43.0009 119.0826 0001629 265.8151 121.0089 15.63641627  2956
DRAGON CRS-28           
1 56845U 23080A   23170.50332658  .00013700  00000+0  24603-3 0  9994
2 56845  51.6410 317.0466 0004517  59.2520 300.8913 15.50178988402152
SZ-15 MODULE            
1 56873U 22162C   23171.18696174  .00027381  00000+0  34327-3 0  9990
2 56873  41.4847 137.8292 0004914  71.0304 289.1067 15.59120298  2461
LONGJIANG 3             
1 56874U 23082A   23171.58975584  .00010981  00000+0  46069-3 0  9996
2 56874  49.1342 208.5237 0006740 315.1555 182.5211 15.23868159  1744
2023-086A               
1 57045U 23086A   23171.05551731 -.00000206  00000+0  00000+0 0  9998
2 57045  27.8754  71.1981 7873881 180.2923 230.7017  1.48410059    24
